{
  "type": "FeatureCollection",
  "features": [
    {
      "type": "Feature",
      "properties": {
        "norad_id": 33835,
        "name": "COSMOS 2251 DEB",
        "group": "cosmos-2251-debris",
        "lat": -18.75919660937288,
        "lon": 107.51365966912464,
        "alt_km": 729.7218530508317,
        "timestamp": "2025-12-06T11:28:11.454981+00:00",
        "meta_object_name": "COSMOS 2251 DEB",
        "meta_object_id": "1993-036CC",
        "meta_epoch": "2025-12-05T19:41:06.880992",
        "meta_mean_motion": 14.62128118,
        "meta_eccentricity": 0.0055348,
        "meta_inclination": 74.057,
        "meta_ra_of_asc_node": 114.3423,
        "meta_arg_of_pericenter": 169.8625,
        "meta_mean_anomaly": 310.1676,
        "meta_ephemeris_type": 0,
        "meta_classification_type": "U",
        "meta_norad_cat_id": 33835,
        "meta_element_set_no": 999,
        "meta_rev_at_epoch": 88688,
        "meta_bstar": 0.0021470273,
        "meta_mean_motion_dot": 0.00011022,
        "meta_mean_motion_ddot": 0,
        "tle_line1": "1 33835U 93036CC  25339.82021853  .00011022  00000+0  21470-2 0  9995",
        "tle_line2": "2 33835  74.0570 114.3423 0055348 169.8625 310.1676 14.62128118886883"
      },
      "geometry": {
        "type": "Point",
        "coordinates": [
          107.51365966912464,
          -18.75919660937288
        ]
      }
    },
    {
      "type": "Feature",
      "properties": {
        "norad_id": 33836,
        "name": "COSMOS 2251 DEB",
        "group": "cosmos-2251-debris",
        "lat": -25.269266740365815,
        "lon": -96.48114415017679,
        "alt_km": 650.4334593141602,
        "timestamp": "2025-12-06T11:28:11.454991+00:00",
        "meta_object_name": "COSMOS 2251 DEB",
        "meta_object_id": "1993-036CD",
        "meta_epoch": "2025-12-05T22:56:43.239264",
        "meta_mean_motion": 14.79414001,
        "meta_eccentricity": 0.00224407,
        "meta_inclination": 73.9979,
        "meta_ra_of_asc_node": 272.3333,
        "meta_arg_of_pericenter": 128.0519,
        "meta_mean_anomaly": 307.614,
        "meta_ephemeris_type": 0,
        "meta_classification_type": "U",
        "meta_norad_cat_id": 33836,
        "meta_element_set_no": 999,
        "meta_rev_at_epoch": 63988,
        "meta_bstar": 0.0020640516,
        "meta_mean_motion_dot": 0.00015468,
        "meta_mean_motion_ddot": 0,
        "tle_line1": "1 33836U 93036CD  25339.95605601  .00015468  00000+0  20641-2 0  9996",
        "tle_line2": "2 33836  73.9979 272.3333 0022440 128.0519 307.6140 14.79414001639886"
      },
      "geometry": {
        "type": "Point",
        "coordinates": [
          -96.48114415017679,
          -25.269266740365815
        ]
      }
    },
    {
      "type": "Feature",
      "properties": {
        "norad_id": 33837,
        "name": "COSMOS 2251 DEB",
        "group": "cosmos-2251-debris",
        "lat": -58.0501540529041,
        "lon": -85.24596292122354,
        "alt_km": 713.2029048733011,
        "timestamp": "2025-12-06T11:28:11.455001+00:00",
        "meta_object_name": "COSMOS 2251 DEB",
        "meta_object_id": "1993-036CE",
        "meta_epoch": "2025-12-05T16:08:57.457536",
        "meta_mean_motion": 14.5067739,
        "meta_eccentricity": 0.00357186,
        "meta_inclination": 74.0132,
        "meta_ra_of_asc_node": 68.9021,
        "meta_arg_of_pericenter": 291.7815,
        "meta_mean_anomaly": 67.9546,
        "meta_ephemeris_type": 0,
        "meta_classification_type": "U",
        "meta_norad_cat_id": 33837,
        "meta_element_set_no": 999,
        "meta_rev_at_epoch": 88693,
        "meta_bstar": 0.00051853727,
        "meta_mean_motion_dot": 2.025e-05,
        "meta_mean_motion_ddot": 0,
        "tle_line1": "1 33837U 93036CE  25339.67288724  .00002025  00000+0  51854-3 0  9995",
        "tle_line2": "2 33837  74.0132  68.9021 0035718 291.7815  67.9546 14.50677390886939"
      },
      "geometry": {
        "type": "Point",
        "coordinates": [
          -85.24596292122354,
          -58.0501540529041
        ]
      }
    },
    {
      "type": "Feature",
      "properties": {
        "norad_id": 33838,
        "name": "COSMOS 2251 DEB",
        "group": "cosmos-2251-debris",
        "lat": 12.177621440046419,
        "lon": -22.001404753805343,
        "alt_km": 740.8228441840947,
        "timestamp": "2025-12-06T11:28:11.455011+00:00",
        "meta_object_name": "COSMOS 2251 DEB",
        "meta_object_id": "1993-036CF",
        "meta_epoch": "2025-12-05T23:39:58.621824",
        "meta_mean_motion": 14.48331499,
        "meta_eccentricity": 0.00274174,
        "meta_inclination": 74.0359,
        "meta_ra_of_asc_node": 162.4609,
        "meta_arg_of_pericenter": 285.2903,
        "meta_mean_anomaly": 198.9241,
        "meta_ephemeris_type": 0,
        "meta_classification_type": "U",
        "meta_norad_cat_id": 33838,
        "meta_element_set_no": 999,
        "meta_rev_at_epoch": 88471,
        "meta_bstar": 0.00071643198,
        "meta_mean_motion_dot": 2.665e-05,
        "meta_mean_motion_ddot": 0,
        "tle_line1": "1 33838U 93036CF  25339.98609516  .00002665  00000+0  71643-3 0  9994",
        "tle_line2": "2 33838  74.0359 162.4609 0027417 285.2903 198.9241 14.48331499884711"
      },
      "geometry": {
        "type": "Point",
        "coordinates": [
          -22.001404753805343,
          12.177621440046419
        ]
      }
    },
    {
      "type": "Feature",
      "properties": {
        "norad_id": 33839,
        "name": "COSMOS 2251 DEB",
        "group": "cosmos-2251-debris",
        "lat": 73.72937113174778,
        "lon": -40.17118285804901,
        "alt_km": 702.1971893267191,
        "timestamp": "2025-12-06T11:28:11.455021+00:00",
        "meta_object_name": "COSMOS 2251 DEB",
        "meta_object_id": "1993-036CG",
        "meta_epoch": "2025-12-05T17:16:04.786176",
        "meta_mean_motion": 14.64390153,
        "meta_eccentricity": 0.00849128,
        "meta_inclination": 74.0395,
        "meta_ra_of_asc_node": 219.9685,
        "meta_arg_of_pericenter": 333.6932,
        "meta_mean_anomaly": 82.0697,
        "meta_ephemeris_type": 0,
        "meta_classification_type": "U",
        "meta_norad_cat_id": 33839,
        "meta_element_set_no": 999,
        "meta_rev_at_epoch": 89477,
        "meta_bstar": 0.00053952094,
        "meta_mean_motion_dot": 2.974e-05,
        "meta_mean_motion_ddot": 0,
        "tle_line1": "1 33839U 93036CG  25339.71949984  .00002974  00000+0  53952-3 0  9998",
        "tle_line2": "2 33839  74.0395 219.9685 0084912 333.6932  82.0697 14.64390153894772"
      },
      "geometry": {
        "type": "Point",
        "coordinates": [
          -40.17118285804901,
          73.72937113174778
        ]
      }
    },
    {
      "type": "Feature",
      "properties": {
        "norad_id": 33841,
        "name": "COSMOS 2251 DEB",
        "group": "cosmos-2251-debris",
        "lat": 57.31044903816437,
        "lon": -43.940161820161315,
        "alt_km": 750.419550309789,
        "timestamp": "2025-12-06T11:28:11.455031+00:00",
        "meta_object_name": "COSMOS 2251 DEB",
        "meta_object_id": "1993-036CJ",
        "meta_epoch": "2025-12-05T22:05:18.692736",
        "meta_mean_motion": 14.37843796,
        "meta_eccentricity": 0.00202287,
        "meta_inclination": 74.0374,
        "meta_ra_of_asc_node": 290.5974,
        "meta_arg_of_pericenter": 12.5009,
        "meta_mean_anomaly": 43.5895,
        "meta_ephemeris_type": 0,
        "meta_classification_type": "U",
        "meta_norad_cat_id": 33841,
        "meta_element_set_no": 999,
        "meta_rev_at_epoch": 88016,
        "meta_bstar": 0.00044442876,
        "meta_mean_motion_dot": 1.317e-05,
        "meta_mean_motion_ddot": 0,
        "tle_line1": "1 33841U 93036CJ  25339.92035524  .00001317  00000+0  44443-3 0  9995",
        "tle_line2": "2 33841  74.0374 290.5974 0020228  12.5009  43.5895 14.37843796880162"
      },
      "geometry": {
        "type": "Point",
        "coordinates": [
          -43.940161820161315,
          57.31044903816437
        ]
      }
    },
    {
      "type": "Feature",
      "properties": {
        "norad_id": 33842,
        "name": "COSMOS 2251 DEB",
        "group": "cosmos-2251-debris",
        "lat": -25.421249781998544,
        "lon": 59.09513674630895,
        "alt_km": 777.9120192399087,
        "timestamp": "2025-12-06T11:28:11.455041+00:00",
        "meta_object_name": "COSMOS 2251 DEB",
        "meta_object_id": "1993-036CK",
        "meta_epoch": "2025-12-05T22:51:49.623552",
        "meta_mean_motion": 14.42674962,
        "meta_eccentricity": 0.00470804,
        "meta_inclination": 74.0333,
        "meta_ra_of_asc_node": 232.2488,
        "meta_arg_of_pericenter": 340.9277,
        "meta_mean_anomaly": 19.0114,
        "meta_ephemeris_type": 0,
        "meta_classification_type": "U",
        "meta_norad_cat_id": 33842,
        "meta_element_set_no": 999,
        "meta_rev_at_epoch": 88239,
        "meta_bstar": 0.00057373086,
        "meta_mean_motion_dot": 1.907e-05,
        "meta_mean_motion_ddot": 0,
        "tle_line1": "1 33842U 93036CK  25339.95265768  .00001907  00000+0  57373-3 0  9995",
        "tle_line2": "2 33842  74.0333 232.2488 0047080 340.9277  19.0114 14.42674962882393"
      },
      "geometry": {
        "type": "Point",
        "coordinates": [
          59.09513674630895,
          -25.421249781998544
        ]
      }
    }
  ]
}